[{"OBJECT_NAME":"STARLINK-32044","OBJECT_ID":"2024-117B","EPOCH":"2026-03-09T21:43:07.324032","MEAN_MOTION":15.30182552,"ECCENTRICITY":0.00013145,"INCLINATION":53.161,"RA_OF_ASC_NODE":35.8222,"ARG_OF_PERICENTER":92.3594,"MEAN_ANOMALY":267.7557,"EPHEMERIS_TYPE":0,"CLASSIFICATION_TYPE":"U","NORAD_CAT_ID":60092,"ELEMENT_SET_NO":999,"REV_AT_EPOCH":9692,"BSTAR":5.3005892e-5,"MEAN_MOTION_DOT":1.21e-5,"MEAN_MOTION_DDOT":0},{"OBJECT_NAME":"BANDWAGON-2 OBJECT D","OBJECT_ID":"2024-247D","EPOCH":"2026-03-09T12:32:33.670752","MEAN_MOTION":15.29076102,"ECCENTRICITY":0.00034883,"INCLINATION":44.9954,"RA_OF_ASC_NODE":115.671,"ARG_OF_PERICENTER":351.1453,"MEAN_ANOMALY":8.9368,"EPHEMERIS_TYPE":0,"CLASSIFICATION_TYPE":"U","NORAD_CAT_ID":62380,"ELEMENT_SET_NO":999,"REV_AT_EPOCH":6773,"BSTAR":0.00040119131,"MEAN_MOTION_DOT":0.00011259,"MEAN_MOTION_DDOT":0}]
